STARLINK-5008           
1 53927U 22119AT  22304.91668981  .00031727  00000+0  22976-3 0  9998
2 53927  53.2151  70.1046 0001904  26.6207  58.6547 15.73185205  1306
STARLINK-5009           
1 53928U 22119AU  22305.16667824  .00038689  00000+0  27931-3 0  9992
2 53928  53.2156  68.8617 0001687  30.5725  33.2109 15.73157227  6296
STARLINK-5018           
1 53929U 22119AV  22305.58334491  .00036082  00000+0  26073-3 0  9991
2 53929  53.2149  66.8061 0003866  15.0379 247.4253 15.73163937  6355
STARLINK-5010           
1 53930U 22119AW  22305.50001157  .00027348  00000+0  19857-3 0  9992
2 53930  53.2163  67.2126 0002166  26.0979 127.6941 15.73207482  6346
STARLINK-5015           
1 53931U 22119AX  22305.50001157 -.00010681  00000+0 -71750-4 0  9998
2 53931  53.2149  67.2065 0002744  20.3867 134.6397 15.73199731  6348
STARLINK-4772           
1 53932U 22119AY  22304.91668981  .00037343  00000+0  26969-3 0  9990
2 53932  53.2157  70.0981 0002773  25.0373  63.8879 15.73164129  1305
STARLINK-4782           
1 53933U 22119AZ  22304.91668981 -.00073746  00000+0 -52426-3 0  9997
2 53933  53.2155  70.0978 0001950  27.4363  60.1850 15.73258717  1307
STARLINK-4775           
1 53934U 22119BA  22305.50001157 -.00052037  00000+0 -36782-3 0  9997
2 53934  53.2159  67.2053 0002167  18.3090 137.2999 15.73248805  6347
STARLINK-5000           
1 53935U 22119BB  22304.91668981 -.00008790  00000+0 -58262-4 0  9991
2 53935  53.2152  70.0949 0001964  24.2096  67.0056 15.73201554  1308
STARLINK-4791           
1 53936U 22119BC  22305.50001157  .00017265  00000+0  12707-3 0  9992
2 53936  53.2160  67.2056 0002124  29.9898 126.2159 15.73219978  6346
STARLINK-4765           
1 53937U 22119BD  22305.58334491  .00050419  00000+0  36174-3 0  9993
2 53937  53.2163  66.7920 0003295  12.0616 257.5968 15.73179953  6350
STARLINK-4633           
1 53964U 22125A   22305.50001157 -.01229294  00000+0 -28624-1 0  9993
2 53964  53.2174 321.6168 0001726  32.7740 340.0211 15.44628473  4556
STARLINK-4578           
1 53965U 22125B   22305.50001157 -.01219786  00000+0 -28083-1 0  9998
2 53965  53.2176 321.6082 0001452  47.2865 329.6134 15.44937691  4551
STARLINK-4635           
1 53966U 22125C   22305.50001157 -.01268505  00000+0 -28972-1 0  9999
2 53966  53.2177 321.5999 0001529  35.6539 345.5031 15.45284259  4552
STARLINK-4634           
1 53967U 22125D   22305.50001157 -.01270392  00000+0 -28708-1 0  9994
2 53967  53.2176 321.5915 0001509  41.1877 344.0364 15.45597150  4555
STARLINK-4629           
1 53968U 22125E   22305.50001157 -.01197524  00000+0 -26094-1 0  9996
2 53968  53.2174 321.5676 0001470  39.7000 356.8777 15.46477910  4557
STARLINK-4468           
1 53969U 22125F   22305.50001157 -.01219180  00000+0 -27179-1 0  9995
2 53969  53.2176 321.5834 0001772  32.6916 356.5833 15.45867927  4559
STARLINK-4567           
1 53970U 22125G   22304.91668981 -.01106099  00000+0 -10334-1 0  9994
2 53970  53.2173 323.1837 0003898 268.0922 330.8981 15.69405484  1303
STARLINK-4639           
1 53971U 22125H   22305.50001157 -.01275060  00000+0 -28205-1 0  9998
2 53971  53.2176 321.5761 0001641  26.1370   6.7929 15.46223378  4555
STARLINK-5157           
1 53972U 22125J   22304.91668981 -.01105847  00000+0 -10301-1 0  9990
2 53972  53.2173 323.1803 0002637 267.6467 333.0127 15.69491601  1300
STARLINK-5156           
1 53973U 22125K   22305.00002315 -.01202348  00000+0 -24787-1 0  9992
2 53973  53.2175 323.9384 0001464  52.6467  80.7572 15.48074279  4470
STARLINK-5159           
1 53974U 22125L   22305.50001157  .00115611  00000+0  81867-3 0  9998
2 53974  53.2175 319.9828 0002487  30.9996  79.1439 15.73146535  4579
STARLINK-5137           
1 53975U 22125M   22305.50001157 -.01144200  00000+0 -11167-1 0  9992
2 53975  53.2174 320.3179 0001512  41.7311 254.2587 15.68039898  4569
STARLINK-5134           
1 53976U 22125N   22305.58334491  .00077226  00000+0  55025-3 0  9994
2 53976  53.2191 319.8283 0002431  26.7875  68.1264 15.73170883  4589
STARLINK-5094           
1 53977U 22125P   22305.50001157 -.00877504  00000+0 -86259-2 0  9998
2 53977  53.2173 320.3132 0006984 270.2974  28.2594 15.67947270  4569
STARLINK-5148           
1 53978U 22125Q   22305.50001157 -.00831474  00000+0 -81308-2 0  9995
2 53978  53.2175 320.3075 0001101  86.5082 214.6056 15.68010375  4564
STARLINK-5123           
1 53979U 22125R   22304.91668981 -.01104847  00000+0 -10251-1 0  9990
2 53979  53.2173 323.1756 0002830 267.6786 335.2591 15.69581446  1309
STARLINK-5133           
1 53980U 22125S   22304.91668981 -.01105058  00000+0 -10200-1 0  9991
2 53980  53.2174 323.1717 0004749 268.1096 337.1360 15.69680307  1301
STARLINK-5149           
1 53981U 22125T   22305.16667824 -.00051738  00000+0 -36501-3 0  9993
2 53981  53.2209 321.8745 0002641  21.9432 239.6301 15.73288279  4519
STARLINK-5120           
1 53982U 22125U   22305.50001157  .00095309  00000+0  67742-3 0  9994
2 53982  53.2181 320.2706 0003625  11.8114 314.3159 15.73138967  4562
STARLINK-5103           
1 53983U 22125V   22304.91668981  .00034119  00000+0  24648-3 0  9993
2 53983  53.2173 323.1263 0003228  10.3882 263.7353 15.73201084  1302
STARLINK-5142           
1 53984U 22125W   22305.50001157  .00119705  00000+0  84648-3 0  9997
2 53984  53.2183 320.2801 0003289  17.0468 304.8127 15.73161158  4565
STARLINK-5147           
1 53985U 22125X   22305.16667824  .00006510  00000+0  50793-4 0  9993
2 53985  53.2184 321.9292 0003225  13.1636 218.6670 15.73190727  4517
STARLINK-5119           
1 53986U 22125Y   22304.91668981  .00003623  00000+0  30253-4 0  9992
2 53986  53.2185 322.8715 0001998  26.8695  15.8100 15.73177752  1302
STARLINK-5112           
1 53987U 22125Z   22305.50001157  .00117124  00000+0  82963-3 0  9991
2 53987  53.2183 320.2800 0003475   9.0299 312.2877 15.73130652  4567
STARLINK-5113           
1 53988U 22125AA  22304.91668981  .00008580  00000+0  65460-4 0  9999
2 53988  53.2186 323.1611 0003309   8.6712 249.4050 15.73211121  1308
STARLINK-5115           
1 53989U 22125AB  22305.16667824  .00023086  00000+0  16841-3 0  9999
2 53989  53.2186 321.9265 0004100   6.8585 226.7065 15.73199866  4519
STARLINK-5075           
1 53990U 22125AC  22305.16667824  .00055015  00000+0  39471-3 0  9992
2 53990  53.2191 321.9214 0003336  15.2886 221.3051 15.73143453  4516
STARLINK-5118           
1 53991U 22125AD  22304.91668981 -.00022936  00000+0 -15927-3 0  9998
2 53991  53.2196 322.4602 0002066  24.3709 219.9656 15.73221822  1308
STARLINK-5108           
1 53992U 22125AE  22305.50001157  .00117669  00000+0  83345-3 0  9996
2 53992  53.2183 320.2704 0003544  15.3341 311.3958 15.73129438  4561
STARLINK-5121           
1 53993U 22125AF  22305.50001157  .00118482  00000+0  83877-3 0  9991
2 53993  53.2192 320.2743 0003030   9.0320 315.8487 15.73140348  4561
STARLINK-5125           
1 53994U 22125AG  22305.50001157  .00119244  00000+0  84358-3 0  9994
2 53994  53.2182 320.2651 0003455  17.1673 311.9009 15.73152166  4569
STARLINK-5097           
1 53995U 22125AH  22305.16667824 -.00049214  00000+0 -34786-3 0  9997
2 53995  53.2183 321.9157 0003507   7.6064 230.7367 15.73218017  4514
STARLINK-5131           
1 53996U 22125AJ  22305.16667824  .00029052  00000+0  21058-3 0  9992
2 53996  53.2190 321.9128 0003228  11.4451 229.2177 15.73209818  4515
STARLINK-5130           
1 53997U 22125AK  22305.16667824  .00003605  00000+0  30094-4 0  9990
2 53997  53.2183 321.9154 0003222  18.0192 220.8766 15.73213783  4513
STARLINK-5128           
1 53998U 22125AL  22305.16667824  .00025475  00000+0  18539-3 0  9999
2 53998  53.2182 321.9096 0003300  10.5376 231.3480 15.73194984  4517
STARLINK-5079           
1 53999U 22125AM  22304.91668981  .00009229  00000+0  70053-4 0  9996
2 53999  53.2186 323.1509 0003101  10.1672 252.6680 15.73219467  1305
STARLINK-5088           
1 54000U 22125AN  22305.50001157  .00119202  00000+0  84415-3 0  9991
2 54000  53.2188 320.2613 0003153  15.2963 316.1464 15.73129385  4567
STARLINK-5105           
1 54001U 22125AP  22304.91668981  .00010251  00000+0  77456-4 0  9992
2 54001  53.2181 323.1433 0002949  12.6088 253.9366 15.73172753  1309
STARLINK-5109           
1 54002U 22125AQ  22305.50001157  .00114834  00000+0  81224-3 0  9994
2 54002  53.2195 320.2248 0003269  12.6578 338.9567 15.73173967  4552
STARLINK-5114           
1 54003U 22125AR  22305.50001157  .00120776  00000+0  85396-3 0  9991
2 54003  53.2186 320.2634 0003628  12.1129 318.1125 15.73158353  4550
STARLINK-5129           
1 54004U 22125AS  22305.50001157  .00115112  00000+0  81550-3 0  9998
2 54004  53.2185 320.2564 0003970  13.1327 320.7147 15.73132972  4555
STARLINK-5135           
1 54005U 22125AT  22305.50001157  .00116354  00000+0  82321-3 0  9995
2 54005  53.2178 320.2575 0003579  15.0939 317.5126 15.73160766  4558
STARLINK-5096           
1 54006U 22125AU  22305.50001157  .00042916  00000+0  30841-3 0  9998
2 54006  53.2185 320.2515 0003261  18.7168 318.0711 15.73212838  4557
STARLINK-5132           
1 54007U 22125AV  22305.16667824  .00009426  00000+0  71463-4 0  9995
2 54007  53.2185 321.9029 0002867  15.6952 229.7410 15.73213903  4507
STARLINK-5145           
1 54008U 22125AW  22305.16667824  .00024813  00000+0  18088-3 0  9996
2 54008  53.2172 321.6329 0002084  23.3435 356.8964 15.73174765  4505
STARLINK-5099           
1 54009U 22125AX  22304.91668981  .00000288  00000+0  64887-5 0  9994
2 54009  53.2185 323.1365 0003022   9.7908 260.2143 15.73218815  1300
STARLINK-5127           
1 54010U 22125AY  22305.50001157  .00018352  00000+0  13484-3 0  9994
2 54010  53.2182 319.9837 0002466  26.6537  84.4462 15.73207811  4557
STARLINK-5124           
1 54011U 22125AZ  22304.91668981  .00012856  00000+0  95915-4 0  9996
2 54011  53.2180 323.1373 0002673  16.7591 252.6990 15.73190858  1305
STARLINK-5126           
1 54012U 22125BA  22305.50001157  .00119170  00000+0  84349-3 0  9994
2 54012  53.2186 320.2463 0003369  14.0431 325.1537 15.73140902  4555
